{
  "type": "FeatureCollection",
  "features": [
    {
      "type": "Feature",
      "properties": {
        "norad_id": 35834,
        "name": "COSMOS 2251 DEB",
        "group": "cosmos-2251-debris",
        "lat": 69.90311064284818,
        "lon": 11.6493814680238,
        "alt_km": 785.0428266973513,
        "timestamp": "2025-12-04T05:42:43.768799+00:00",
        "meta_object_name": "COSMOS 2251 DEB",
        "meta_object_id": "1993-036ATG",
        "meta_epoch": "2025-12-03T09:39:35.307936",
        "meta_mean_motion": 14.12966423,
        "meta_eccentricity": 0.01090748,
        "meta_inclination": 73.9307,
        "meta_ra_of_asc_node": 321.1574,
        "meta_arg_of_pericenter": 123.5318,
        "meta_mean_anomaly": 26.7998,
        "meta_ephemeris_type": 0,
        "meta_classification_type": "U",
        "meta_norad_cat_id": 35834,
        "meta_element_set_no": 999,
        "meta_rev_at_epoch": 66131,
        "meta_bstar": 0.00019431866,
        "meta_mean_motion_dot": 3.59e-06,
        "meta_mean_motion_ddot": 0,
        "tle_line1": "1 35834U 93036ATG 25337.40249199  .00000359  00000+0  19432-3 0  9990",
        "tle_line2": "2 35834  73.9307 321.1574 0109074 123.5318  26.7998 14.12966423661317"
      },
      "geometry": {
        "type": "Point",
        "coordinates": [
          11.6493814680238,
          69.90311064284818
        ]
      }
    },
    {
      "type": "Feature",
      "properties": {
        "norad_id": 35835,
        "name": "COSMOS 2251 DEB",
        "group": "cosmos-2251-debris",
        "lat": -35.62440672857962,
        "lon": 114.54922442937193,
        "alt_km": 1143.0025796630944,
        "timestamp": "2025-12-04T05:42:43.768809+00:00",
        "meta_object_name": "COSMOS 2251 DEB",
        "meta_object_id": "1993-036ATH",
        "meta_epoch": "2025-11-23T15:11:23.439552",
        "meta_mean_motion": 13.82767918,
        "meta_eccentricity": 0.02888493,
        "meta_inclination": 74.0623,
        "meta_ra_of_asc_node": 300.5555,
        "meta_arg_of_pericenter": 86.7647,
        "meta_mean_anomaly": 276.6477,
        "meta_ephemeris_type": 0,
        "meta_classification_type": "U",
        "meta_norad_cat_id": 35835,
        "meta_element_set_no": 999,
        "meta_rev_at_epoch": 61435,
        "meta_bstar": 0.00097699609,
        "meta_mean_motion_dot": 1.444e-05,
        "meta_mean_motion_ddot": 0,
        "tle_line1": "1 35835U 93036ATH 25327.63291018  .00001444  00000+0  97700-3 0  9992",
        "tle_line2": "2 35835  74.0623 300.5555 0288849  86.7647 276.6477 13.82767918614358"
      },
      "geometry": {
        "type": "Point",
        "coordinates": [
          114.54922442937193,
          -35.62440672857962
        ]
      }
    },
    {
      "type": "Feature",
      "properties": {
        "norad_id": 35836,
        "name": "COSMOS 2251 DEB",
        "group": "cosmos-2251-debris",
        "lat": -72.84546159431281,
        "lon": 77.50944324177215,
        "alt_km": 648.8829743225951,
        "timestamp": "2025-12-04T05:42:43.768819+00:00",
        "meta_object_name": "COSMOS 2251 DEB",
        "meta_object_id": "1993-036ATJ",
        "meta_epoch": "2025-12-03T07:17:31.835616",
        "meta_mean_motion": 14.70639126,
        "meta_eccentricity": 0.0025001,
        "meta_inclination": 74.0317,
        "meta_ra_of_asc_node": 191.2565,
        "meta_arg_of_pericenter": 251.0331,
        "meta_mean_anomaly": 108.8131,
        "meta_ephemeris_type": 0,
        "meta_classification_type": "U",
        "meta_norad_cat_id": 35836,
        "meta_element_set_no": 999,
        "meta_rev_at_epoch": 63381,
        "meta_bstar": 0.0020272,
        "meta_mean_motion_dot": 0.00012386,
        "meta_mean_motion_ddot": 0,
        "tle_line1": "1 35836U 93036ATJ 25337.30384069  .00012386  00000+0  20272-2 0  9993",
        "tle_line2": "2 35836  74.0317 191.2565 0025001 251.0331 108.8131 14.70639126633813"
      },
      "geometry": {
        "type": "Point",
        "coordinates": [
          77.50944324177215,
          -72.84546159431281
        ]
      }
    },
    {
      "type": "Feature",
      "properties": {
        "norad_id": 35837,
        "name": "COSMOS 2251 DEB",
        "group": "cosmos-2251-debris",
        "lat": -53.53664705123617,
        "lon": 65.06055287052479,
        "alt_km": 1032.677908299106,
        "timestamp": "2025-12-04T05:42:43.768829+00:00",
        "meta_object_name": "COSMOS 2251 DEB",
        "meta_object_id": "1993-036ATK",
        "meta_epoch": "2025-12-01T23:51:57.289248",
        "meta_mean_motion": 13.6337538,
        "meta_eccentricity": 0.04221684,
        "meta_inclination": 73.722,
        "meta_ra_of_asc_node": 225.5014,
        "meta_arg_of_pericenter": 147.9905,
        "meta_mean_anomaly": 236.1342,
        "meta_ephemeris_type": 0,
        "meta_classification_type": "U",
        "meta_norad_cat_id": 35837,
        "meta_element_set_no": 999,
        "meta_rev_at_epoch": 57830,
        "meta_bstar": 0.0015598764,
        "meta_mean_motion_dot": 2.227e-05,
        "meta_mean_motion_ddot": 0,
        "tle_line1": "1 35837U 93036ATK 25335.99441307  .00002227  00000+0  15599-2 0  9995",
        "tle_line2": "2 35837  73.7220 225.5014 0422168 147.9905 236.1342 13.63375380578309"
      },
      "geometry": {
        "type": "Point",
        "coordinates": [
          65.06055287052479,
          -53.53664705123617
        ]
      }
    },
    {
      "type": "Feature",
      "properties": {
        "norad_id": 35839,
        "name": "COSMOS 2251 DEB",
        "group": "cosmos-2251-debris",
        "lat": -20.3742890243188,
        "lon": -24.082747651514023,
        "alt_km": 431.7707819661473,
        "timestamp": "2025-12-04T05:42:43.768839+00:00",
        "meta_object_name": "COSMOS 2251 DEB",
        "meta_object_id": "1993-036ATM",
        "meta_epoch": "2025-12-02T18:04:00.315552",
        "meta_mean_motion": 15.45031153,
        "meta_eccentricity": 0.00040713,
        "meta_inclination": 74.215,
        "meta_ra_of_asc_node": 345.1465,
        "meta_arg_of_pericenter": 349.5687,
        "meta_mean_anomaly": 10.544,
        "meta_ephemeris_type": 0,
        "meta_classification_type": "U",
        "meta_norad_cat_id": 35839,
        "meta_element_set_no": 999,
        "meta_rev_at_epoch": 88413,
        "meta_bstar": 0.0040209736,
        "meta_mean_motion_dot": 0.00194741,
        "meta_mean_motion_ddot": 0,
        "tle_line1": "1 35839U 93036ATM 25336.75278143  .00194741  00000+0  40210-2 0  9999",
        "tle_line2": "2 35839  74.2150 345.1465 0004071 349.5687  10.5440 15.45031153884137"
      },
      "geometry": {
        "type": "Point",
        "coordinates": [
          -24.082747651514023,
          -20.3742890243188
        ]
      }
    },
    {
      "type": "Feature",
      "properties": {
        "norad_id": 35840,
        "name": "COSMOS 2251 DEB",
        "group": "cosmos-2251-debris",
        "lat": -69.93386446853103,
        "lon": 121.82906019856989,
        "alt_km": 848.9621676404577,
        "timestamp": "2025-12-04T05:42:43.768849+00:00",
        "meta_object_name": "COSMOS 2251 DEB",
        "meta_object_id": "1993-036ATN",
        "meta_epoch": "2025-12-03T06:41:48.528096",
        "meta_mean_motion": 14.37668767,
        "meta_eccentricity": 0.0116177,
        "meta_inclination": 73.9299,
        "meta_ra_of_asc_node": 175.711,
        "meta_arg_of_pericenter": 80.5155,
        "meta_mean_anomaly": 280.9106,
        "meta_ephemeris_type": 0,
        "meta_classification_type": "U",
        "meta_norad_cat_id": 35840,
        "meta_element_set_no": 999,
        "meta_rev_at_epoch": 85155,
        "meta_bstar": 0.0020521,
        "meta_mean_motion_dot": 6.645e-05,
        "meta_mean_motion_ddot": 0,
        "tle_line1": "1 35840U 93036ATN 25337.27903389  .00006645  00000+0  20521-2 0  9994",
        "tle_line2": "2 35840  73.9299 175.7110 0116177  80.5155 280.9106 14.37668767851555"
      },
      "geometry": {
        "type": "Point",
        "coordinates": [
          121.82906019856989,
          -69.93386446853103
        ]
      }
    },
    {
      "type": "Feature",
      "properties": {
        "norad_id": 35883,
        "name": "COSMOS 2251 DEB",
        "group": "cosmos-2251-debris",
        "lat": -65.50095304537041,
        "lon": -55.02537713991699,
        "alt_km": 681.0467028782086,
        "timestamp": "2025-12-04T05:42:43.768859+00:00",
        "meta_object_name": "COSMOS 2251 DEB",
        "meta_object_id": "1993-036ATW",
        "meta_epoch": "2025-11-29T02:53:29.744160",
        "meta_mean_motion": 14.50541303,
        "meta_eccentricity": 0.00841977,
        "meta_inclination": 74.0237,
        "meta_ra_of_asc_node": 95.6459,
        "meta_arg_of_pericenter": 227.8885,
        "meta_mean_anomaly": 309.997,
        "meta_ephemeris_type": 0,
        "meta_classification_type": "U",
        "meta_norad_cat_id": 35883,
        "meta_element_set_no": 999,
        "meta_rev_at_epoch": 62188,
        "meta_bstar": 0.00041574036,
        "meta_mean_motion_dot": 1.674e-05,
        "meta_mean_motion_ddot": 0,
        "tle_line1": "1 35883U 93036ATW 25333.12048315  .00001674  00000+0  41574-3 0  9999",
        "tle_line2": "2 35883  74.0237  95.6459 0084197 227.8885 309.9970 14.50541303621887"
      },
      "geometry": {
        "type": "Point",
        "coordinates": [
          -55.02537713991699,
          -65.50095304537041
        ]
      }
    }
  ]
}